start=new Date('2023-04-16T00:00:00.000Z').valueOf();
sats=[{"REV_AT_EPOCH":"6132","EPHEMERIS_TYPE":"0","TLE_LINE1":"1 51971U 22025R   23105.68722699  .00000212  00000-0  31981-4 0  9995","APOAPSIS":"543.201","INCLINATION":"53.1525","MEAN_MOTION":"15.08035407","TLE_LINE2":"2 51971  53.1525 103.2840 0001438 100.0442 260.0712 15.08035407 61324","DECAY_DATE":null,"NORAD_CAT_ID":"51971","CENTER_NAME":"EARTH","LAUNCH_DATE":"2022-03-09","ECCENTRICITY":"0.00014380","RCS_SIZE":"LARGE","COUNTRY_CODE":"US","ARG_OF_PERICENTER":"100.0442","OBJECT_ID":"2022-025R","PERIOD":"95.488","SEMIMAJOR_AXIS":"6920.341","MEAN_ANOMALY":"260.0712","OBJECT_NAME":"STARLINK-3669","EPOCH":"2023-04-15T16:29:36.411936","CLASSIFICATION_TYPE":"U","GP_ID":"230131369","FILE":"3888171","OBJECT_TYPE":"PAYLOAD","TIME_SYSTEM":"UTC","MEAN_MOTION_DDOT":"0.0000000000000","MEAN_MOTION_DOT":"0.00000212","BSTAR":"0.00003198100000","RA_OF_ASC_NODE":"103.2840","MEAN_ELEMENT_THEORY":"SGP4","SITE":"AFETR","PERIAPSIS":"541.211","ELEMENT_SET_NO":"999","REF_FRAME":"TEME"},{"TIME_SYSTEM":"UTC","FILE":"3887974","OBJECT_TYPE":"PAYLOAD","GP_ID":"230100857","CLASSIFICATION_TYPE":"U","EPOCH":"2023-04-15T11:17:14.198208","OBJECT_NAME":"STARLINK-3671","MEAN_ANOMALY":"276.3777","SEMIMAJOR_AXIS":"6927.810","ELEMENT_SET_NO":"999","REF_FRAME":"TEME","PERIAPSIS":"548.772","SITE":"AFETR","MEAN_ELEMENT_THEORY":"SGP4","RA_OF_ASC_NODE":"104.9929","BSTAR":"0.00010636000000","MEAN_MOTION_DDOT":"0.0000000000000","MEAN_MOTION_DOT":"0.00001271","TLE_LINE2":"2 51972  53.1621 104.9929 0001303  83.7361 276.3777 15.05597388 61280","MEAN_MOTION":"15.05597388","INCLINATION":"53.1621","EPHEMERIS_TYPE":"0","TLE_LINE1":"1 51972U 22025S   23105.47030322  .00001271  00000-0  10636-3 0  9997","APOAPSIS":"550.577","REV_AT_EPOCH":"6128","OBJECT_ID":"2022-025S","PERIOD":"95.643","ARG_OF_PERICENTER":"83.7361","COUNTRY_CODE":"US","RCS_SIZE":"LARGE","LAUNCH_DATE":"2022-03-09","CENTER_NAME":"EARTH","ECCENTRICITY":"0.00013030","DECAY_DATE":null,"NORAD_CAT_ID":"51972"},{"ELEMENT_SET_NO":"999","REF_FRAME":"TEME","PERIAPSIS":"548.809","SITE":"AFETR","MEAN_ELEMENT_THEORY":"SGP4","RA_OF_ASC_NODE":"104.0895","BSTAR":"-0.00001225200000","MEAN_MOTION_DDOT":"0.0000000000000","MEAN_MOTION_DOT":"-0.00000458","TIME_SYSTEM":"UTC","OBJECT_TYPE":"PAYLOAD","FILE":"3888171","GP_ID":"230131868","CLASSIFICATION_TYPE":"U","EPOCH":"2023-04-15T16:25:08.234976","OBJECT_NAME":"STARLINK-3679","MEAN_ANOMALY":"268.4974","SEMIMAJOR_AXIS":"6927.832","PERIOD":"95.644","OBJECT_ID":"2022-025T","ARG_OF_PERICENTER":"91.6163","COUNTRY_CODE":"US","RCS_SIZE":"LARGE","LAUNCH_DATE":"2022-03-09","ECCENTRICITY":"0.00012810","CENTER_NAME":"EARTH","DECAY_DATE":null,"NORAD_CAT_ID":"51973","TLE_LINE2":"2 51973  53.1555 104.0895 0001281  91.6163 268.4974 15.05590219 61314","MEAN_MOTION":"15.05590219","INCLINATION":"53.1555","TLE_LINE1":"1 51973U 22025T   23105.68412309 -.00000458  00000-0 -12252-4 0  9995","APOAPSIS":"550.584","EPHEMERIS_TYPE":"0","REV_AT_EPOCH":"6131"},{"SEMIMAJOR_AXIS":"6927.811","MEAN_ANOMALY":"258.3511","OBJECT_NAME":"STARLINK-3672","EPOCH":"2023-04-15T17:34:14.834496","GP_ID":"230131121","CLASSIFICATION_TYPE":"U","TIME_SYSTEM":"UTC","FILE":"3888171","OBJECT_TYPE":"PAYLOAD","BSTAR":"0.00009552500000","MEAN_MOTION_DOT":"0.00001114","MEAN_MOTION_DDOT":"0.0000000000000","RA_OF_ASC_NODE":"103.8203","MEAN_ELEMENT_THEORY":"SGP4","SITE":"AFETR","PERIAPSIS":"549.083","ELEMENT_SET_NO":"999","REF_FRAME":"TEME","REV_AT_EPOCH":"6131","INCLINATION":"53.1616","EPHEMERIS_TYPE":"0","TLE_LINE1":"1 51974U 22025U   23105.73211614  .00001114  00000-0  95525-4 0  9990","APOAPSIS":"550.269","MEAN_MOTION":"15.05596804","TLE_LINE2":"2 51974  53.1616 103.8203 0000856 101.7575 258.3511 15.05596804 61311","DECAY_DATE":null,"NORAD_CAT_ID":"51974","LAUNCH_DATE":"2022-03-09","CENTER_NAME":"EARTH","ECCENTRICITY":"0.00008560","RCS_SIZE":"LARGE","COUNTRY_CODE":"US","PERIOD":"95.643","OBJECT_ID":"2022-025U","ARG_OF_PERICENTER":"101.7575"},{"REV_AT_EPOCH":"6134","EPHEMERIS_TYPE":"0","TLE_LINE1":"1 51975U 22025V   23105.69133635  .00000345  00000-0  38269-4 0  9999","APOAPSIS":"535.699","INCLINATION":"53.1562","MEAN_MOTION":"15.10492356","TLE_LINE2":"2 51975  53.1562 102.1618 0001446  98.2808 261.8348 15.10492356 61342","DECAY_DATE":null,"NORAD_CAT_ID":"51975","LAUNCH_DATE":"2022-03-09","ECCENTRICITY":"0.00014460","CENTER_NAME":"EARTH","RCS_SIZE":"LARGE","COUNTRY_CODE":"US","ARG_OF_PERICENTER":"98.2808","PERIOD":"95.333","OBJECT_ID":"2022-025V","MEAN_ANOMALY":"261.8348","SEMIMAJOR_AXIS":"6912.834","OBJECT_NAME":"STARLINK-3674","EPOCH":"2023-04-15T16:35:31.460640","CLASSIFICATION_TYPE":"U","GP_ID":"230130871","FILE":"3888171","OBJECT_TYPE":"PAYLOAD","TIME_SYSTEM":"UTC","MEAN_MOTION_DDOT":"0.0000000000000","MEAN_MOTION_DOT":"0.00000345","BSTAR":"0.00003826900000","RA_OF_ASC_NODE":"102.1618","MEAN_ELEMENT_THEORY":"SGP4","SITE":"AFETR","PERIAPSIS":"533.700","REF_FRAME":"TEME","ELEMENT_SET_NO":"999"},{"DECAY_DATE":null,"NORAD_CAT_ID":"51976","CENTER_NAME":"EARTH","LAUNCH_DATE":"2022-03-09","ECCENTRICITY":"0.00012980","RCS_SIZE":"LARGE","COUNTRY_CODE":"US","ARG_OF_PERICENTER":"80.4583","OBJECT_ID":"2022-025W","PERIOD":"95.438","REV_AT_EPOCH":"6113","TLE_LINE1":"1 51976U 22025W   23105.30778212 -.00000544  00000-0 -16083-4 0  9997","EPHEMERIS_TYPE":"0","APOAPSIS":"540.647","INCLINATION":"53.2151","MEAN_MOTION":"15.08838746","TLE_LINE2":"2 51976  53.2151 114.8688 0001298  80.4583 279.6556 15.08838746 61132","MEAN_MOTION_DOT":"-0.00000544","MEAN_MOTION_DDOT":"0.0000000000000","BSTAR":"-0.00001608300000","RA_OF_ASC_NODE":"114.8688","MEAN_ELEMENT_THEORY":"SGP4","SITE":"AFETR","PERIAPSIS":"538.851","ELEMENT_SET_NO":"999","REF_FRAME":"TEME","SEMIMAJOR_AXIS":"6917.884","MEAN_ANOMALY":"279.6556","OBJECT_NAME":"STARLINK-3663","EPOCH":"2023-04-15T07:23:12.375168","CLASSIFICATION_TYPE":"U","GP_ID":"230100358","FILE":"3887974","OBJECT_TYPE":"PAYLOAD","TIME_SYSTEM":"UTC"},{"DECAY_DATE":null,"NORAD_CAT_ID":"51977","RCS_SIZE":"LARGE","CENTER_NAME":"EARTH","LAUNCH_DATE":"2022-03-09","ECCENTRICITY":"0.00012880","PERIOD":"95.437","OBJECT_ID":"2022-025X","ARG_OF_PERICENTER":"87.3489","COUNTRY_CODE":"US","INCLINATION":"53.2144","TLE_LINE1":"1 51977U 22025X   23105.37313809  .00002300  00000-0  16250-3 0  9997","EPHEMERIS_TYPE":"0","APOAPSIS":"540.621","REV_AT_EPOCH":"6141","MEAN_MOTION":"15.08845076","TLE_LINE2":"2 51977  53.2144  94.5852 0001288  87.3489 272.7651 15.08845076 61417","RA_OF_ASC_NODE":"94.5852","BSTAR":"0.00016250000000","MEAN_MOTION_DDOT":"0.0000000000000","MEAN_MOTION_DOT":"0.00002300","SITE":"AFETR","MEAN_ELEMENT_THEORY":"SGP4","ELEMENT_SET_NO":"999","REF_FRAME":"TEME","PERIAPSIS":"538.839","OBJECT_NAME":"STARLINK-3660","MEAN_ANOMALY":"272.7651","SEMIMAJOR_AXIS":"6917.865","EPOCH":"2023-04-15T08:57:19.130976","GP_ID":"230100604","CLASSIFICATION_TYPE":"U","TIME_SYSTEM":"UTC","FILE":"3887974","OBJECT_TYPE":"PAYLOAD"},{"REF_FRAME":"TEME","ELEMENT_SET_NO":"999","PERIAPSIS":"538.769","RA_OF_ASC_NODE":"114.0399","BSTAR":"0.00009626800000","MEAN_MOTION_DDOT":"0.0000000000000","MEAN_MOTION_DOT":"0.00001245","SITE":"AFETR","MEAN_ELEMENT_THEORY":"SGP4","GP_ID":"230099358","CLASSIFICATION_TYPE":"U","TIME_SYSTEM":"UTC","FILE":"3887974","OBJECT_TYPE":"PAYLOAD","OBJECT_NAME":"STARLINK-3666","SEMIMAJOR_AXIS":"6917.846","MEAN_ANOMALY":"269.2624","EPOCH":"2023-04-15T11:53:27.170304","PERIOD":"95.437","OBJECT_ID":"2022-025Y","ARG_OF_PERICENTER":"90.8524","COUNTRY_CODE":"US","DECAY_DATE":null,"NORAD_CAT_ID":"51978","RCS_SIZE":"LARGE","ECCENTRICITY":"0.00013610","LAUNCH_DATE":"2022-03-09","CENTER_NAME":"EARTH","MEAN_MOTION":"15.08851396","TLE_LINE2":"2 51978  53.2181 114.0399 0001361  90.8524 269.2624 15.08851396 61158","INCLINATION":"53.2181","APOAPSIS":"540.652","TLE_LINE1":"1 51978U 22025Y   23105.49545336  .00001245  00000-0  96268-4 0  9998","EPHEMERIS_TYPE":"0","REV_AT_EPOCH":"6115"},{"TLE_LINE1":"1 51979U 22025Z   23105.70890094  .00000644  00000-0  58520-4 0  9998","EPHEMERIS_TYPE":"0","APOAPSIS":"540.708","INCLINATION":"53.2148","REV_AT_EPOCH":"6119","MEAN_MOTION":"15.08840165","TLE_LINE2":"2 51979  53.2148 113.0656 0001392  84.4601 275.6550 15.08840165 61191","NORAD_CAT_ID":"51979","DECAY_DATE":null,"RCS_SIZE":"LARGE","CENTER_NAME":"EARTH","LAUNCH_DATE":"2022-03-09","ECCENTRICITY":"0.00013920","ARG_OF_PERICENTER":"84.4601","PERIOD":"95.438","OBJECT_ID":"2022-025Z","COUNTRY_CODE":"US","OBJECT_NAME":"STARLINK-3656","SEMIMAJOR_AXIS":"6917.880","MEAN_ANOMALY":"275.6550","EPOCH":"2023-04-15T17:00:49.041216","CLASSIFICATION_TYPE":"U","GP_ID":"230131370","OBJECT_TYPE":"PAYLOAD","FILE":"3888171","TIME_SYSTEM":"UTC","RA_OF_ASC_NODE":"113.0656","MEAN_MOTION_DDOT":"0.0000000000000","MEAN_MOTION_DOT":"0.00000644","BSTAR":"0.00005852000000","SITE":"AFETR","MEAN_ELEMENT_THEORY":"SGP4","REF_FRAME":"TEME","ELEMENT_SET_NO":"999","PERIAPSIS":"538.782"},{"FILE":"3888171","OBJECT_TYPE":"PAYLOAD","TIME_SYSTEM":"UTC","CLASSIFICATION_TYPE":"U","GP_ID":"230131622","EPOCH":"2023-04-15T18:04:24.279456","OBJECT_NAME":"STARLINK-3649","SEMIMAJOR_AXIS":"6917.863","MEAN_ANOMALY":"267.3657","ELEMENT_SET_NO":"999","REF_FRAME":"TEME","PERIAPSIS":"538.873","SITE":"AFETR","MEAN_ELEMENT_THEORY":"SGP4","RA_OF_ASC_NODE":"112.8718","MEAN_MOTION_DOT":"0.00000506","MEAN_MOTION_DDOT":"0.0000000000000","BSTAR":"0.00004985900000","TLE_LINE2":"2 51980  53.2167 112.8718 0001236  92.7477 267.3657 15.08845651 61191","MEAN_MOTION":"15.08845651","TLE_LINE1":"1 51980U 22025AA  23105.75305879  .00000506  00000-0  49859-4 0  9999","APOAPSIS":"540.583","EPHEMERIS_TYPE":"0","INCLINATION":"53.2167","REV_AT_EPOCH":"6119","ARG_OF_PERICENTER":"92.7477","PERIOD":"95.437","OBJECT_ID":"2022-025AA","COUNTRY_CODE":"US","RCS_SIZE":"LARGE","CENTER_NAME":"EARTH","LAUNCH_DATE":"2022-03-09","ECCENTRICITY":"0.00012360","DECAY_DATE":null,"NORAD_CAT_ID":"51980"}];
